{
  "norad_id": 68090,
  "name": "STARLINK-36320",
  "history": [
    {
      "epoch": "2026-04-25T20:00:01.000224Z",
      "apogee_km": 409.98230363178845,
      "perigee_km": 409.2139320164515,
      "latitude_deg": 45.290108096925934,
      "longitude_deg": -144.73732287175997,
      "height_km": 414.00901829289006,
      "semi_major_axis_km": 6787.73511782412,
      "eccentricity": 5.66e-05,
      "inclination_deg": 53.1593,
      "raan_deg": 320.296,
      "arg_perigee_deg": 92.7576,
      "mean_anomaly_deg": 329.5972,
      "mean_motion_rev_day": 15.52442175
    },
    {
      "epoch": "2026-04-26T22:00:00.999936Z",
      "apogee_km": 419.6721844991189,
      "perigee_km": 418.11919846976707,
      "latitude_deg": -6.224568339298651,
      "longitude_deg": 125.5284180784572,
      "height_km": 420.99503921387264,
      "semi_major_axis_km": 6797.032691484443,
      "eccentricity": 0.00011424,
      "inclination_deg": 53.1589,
      "raan_deg": 315.1076,
      "arg_perigee_deg": 95.3596,
      "mean_anomaly_deg": 257.0145,
      "mean_motion_rev_day": 15.49257916
    },
    {
      "epoch": "2026-04-27T20:00:03.000384Z",
      "apogee_km": 419.5529096267992,
      "perigee_km": 418.1744778861057,
      "latitude_deg": 48.11070636454389,
      "longitude_deg": -148.93622372163543,
      "height_km": 423.66003202275215,
      "semi_major_axis_km": 6797.000693756452,
      "eccentricity": 0.0001014,
      "inclination_deg": 53.1585,
      "raan_deg": 310.7242,
      "arg_perigee_deg": 100.0067,
      "mean_anomaly_deg": 328.1317,
      "mean_motion_rev_day": 15.49268856
    },
    {
      "epoch": "2026-04-28T20:00:01.000224Z",
      "apogee_km": 419.56807042346827,
      "perigee_km": 418.16380961606046,
      "latitude_deg": -48.39107970441801,
      "longitude_deg": 26.160866468399412,
      "height_km": 436.14584802196583,
      "semi_major_axis_km": 6797.0029400197645,
      "eccentricity": 0.0001033,
      "inclination_deg": 53.1588,
      "raan_deg": 305.9427,
      "arg_perigee_deg": 83.0995,
      "mean_anomaly_deg": 165.5928,
      "mean_motion_rev_day": 15.49268088
    },
    {
      "epoch": "2026-04-29T20:00:01.999008Z",
      "apogee_km": 419.57517734861904,
      "perigee_km": 418.18722623181293,
      "latitude_deg": 48.68908879415137,
      "longitude_deg": -158.66843267114422,
      "height_km": 423.7120520074966,
      "semi_major_axis_km": 6797.018201790215,
      "eccentricity": 0.0001021,
      "inclination_deg": 53.1586,
      "raan_deg": 301.161,
      "arg_perigee_deg": 79.8779,
      "mean_anomaly_deg": 349.5849,
      "mean_motion_rev_day": 15.4926287
    },
    {
      "epoch": "2026-04-30T00:00:00.999648Z",
      "apogee_km": 419.64453088885966,
      "perigee_km": 418.17935901828605,
      "latitude_deg": -52.279298265341865,
      "longitude_deg": 7.979332828821322,
      "height_km": 437.69606419343194,
      "semi_major_axis_km": 6797.048944953573,
      "eccentricity": 0.00010778,
      "inclination_deg": 53.1582,
      "raan_deg": 300.364,
      "arg_perigee_deg": 71.6394,
      "mean_anomaly_deg": 207.8754,
      "mean_motion_rev_day": 15.49252359
    },
    {
      "epoch": "2026-05-02T11:11:30.195744Z",
      "apogee_km": 425.9803394087212,
      "perigee_km": 424.37067566943733,
      "latitude_deg": -2.6592590826742735e-06,
      "longitude_deg": -99.68397368455085,
      "height_km": 425.5795584287242,
      "semi_major_axis_km": 6803.312507539079,
      "eccentricity": 0.0001183,
      "inclination_deg": 53.1593,
      "raan_deg": 288.5758,
      "arg_perigee_deg": 51.5009,
      "mean_anomaly_deg": 308.6105,
      "mean_motion_rev_day": 15.47113341
    },
    {
      "epoch": "2026-05-03T20:00:01.999008Z",
      "apogee_km": 443.7398476214785,
      "perigee_km": 442.8325983328232,
      "latitude_deg": 32.750837210949605,
      "longitude_deg": 148.99015238918585,
      "height_km": 445.2348294748058,
      "semi_major_axis_km": 6821.4232229771505,
      "eccentricity": 6.65e-05,
      "inclination_deg": 53.1606,
      "raan_deg": 282.0953,
      "arg_perigee_deg": 103.9282,
      "mean_anomaly_deg": 298.458,
      "mean_motion_rev_day": 15.40956109
    },
    {
      "epoch": "2026-05-04T20:00:01.999008Z",
      "apogee_km": 456.58459936561485,
      "perigee_km": 454.832401379319,
      "latitude_deg": -4.488186863484376,
      "longitude_deg": -61.983974078524994,
      "height_km": 457.78526349229895,
      "semi_major_axis_km": 6833.845500372467,
      "eccentricity": 0.0001282,
      "inclination_deg": 53.1595,
      "raan_deg": 277.3887,
      "arg_perigee_deg": 62.0563,
      "mean_anomaly_deg": 123.4085,
      "mean_motion_rev_day": 15.36756391
    },
    {
      "epoch": "2026-05-05T20:00:03.000384Z",
      "apogee_km": 468.03203504602516,
      "perigee_km": 467.1763173989966,
      "latitude_deg": -35.75974772835864,
      "longitude_deg": 76.54701699042211,
      "height_km": 479.10556568104215,
      "semi_major_axis_km": 6845.74117622251,
      "eccentricity": 6.25e-05,
      "inclination_deg": 53.1595,
      "raan_deg": 272.7118,
      "arg_perigee_deg": 52.8094,
      "mean_anomaly_deg": 260.6032,
      "mean_motion_rev_day": 15.32752556
    },
    {
      "epoch": "2026-05-06T20:00:01.999008Z",
      "apogee_km": 475.9463777977562,
      "perigee_km": 474.74564757393364,
      "latitude_deg": 47.874013529747536,
      "longitude_deg": 158.83689518642632,
      "height_km": 480.08104920452627,
      "semi_major_axis_km": 6853.483012685844,
      "eccentricity": 8.76e-05,
      "inclination_deg": 53.1589,
      "raan_deg": 268.0627,
      "arg_perigee_deg": 65.6543,
      "mean_anomaly_deg": 1.9532,
      "mean_motion_rev_day": 15.30156146
    },
    {
      "epoch": "2026-05-07T20:00:01.999008Z",
      "apogee_km": 476.0379114989937,
      "perigee_km": 474.55894013410307,
      "latitude_deg": 0.4168481096683048,
      "longitude_deg": -82.57568551372296,
      "height_km": 476.3908655135843,
      "semi_major_axis_km": 6853.435425816549,
      "eccentricity": 0.0001079,
      "inclination_deg": 53.1587,
      "raan_deg": 263.4172,
      "arg_perigee_deg": 69.9454,
      "mean_anomaly_deg": 109.4252,
      "mean_motion_rev_day": 15.30172083
    },
    {
      "epoch": "2026-05-08T20:00:01.999008Z",
      "apogee_km": 476.12884875191503,
      "perigee_km": 474.4853928517459,
      "latitude_deg": -48.45527477299261,
      "longitude_deg": 34.87460874036511,
      "height_km": 492.57436934556904,
      "semi_major_axis_km": 6853.44412080183,
      "eccentricity": 0.0001199,
      "inclination_deg": 53.1586,
      "raan_deg": 258.7723,
      "arg_perigee_deg": 71.6403,
      "mean_anomaly_deg": 219.5215,
      "mean_motion_rev_day": 15.30169171
    },
    {
      "epoch": "2026-05-09T20:00:04.000032Z",
      "apogee_km": 476.04891133945694,
      "perigee_km": 474.5466384368001,
      "latitude_deg": 33.2051488062476,
      "longitude_deg": 115.65216070498218,
      "height_km": 476.95497597585495,
      "semi_major_axis_km": 6853.434774888128,
      "eccentricity": 0.0001096,
      "inclination_deg": 53.1588,
      "raan_deg": 254.1273,
      "arg_perigee_deg": 81.3829,
      "mean_anomaly_deg": 321.6525,
      "mean_motion_rev_day": 15.30172301
    },
    {
      "epoch": "2026-05-10T17:45:35.837568Z",
      "apogee_km": 475.9191134004295,
      "perigee_km": 474.4991000871123,
      "latitude_deg": -3.3371493796037876e-05,
      "longitude_deg": 114.97686380815932,
      "height_km": 475.9494404935134,
      "semi_major_axis_km": 6853.34610674377,
      "eccentricity": 0.0001036,
      "inclination_deg": 53.1598,
      "raan_deg": 249.9151,
      "arg_perigee_deg": 77.1355,
      "mean_anomaly_deg": 282.9761,
      "mean_motion_rev_day": 15.30201997
    },
    {
      "epoch": "2026-05-11T17:16:23.672352Z",
      "apogee_km": 475.8858445859978,
      "perigee_km": 474.5014717930444,
      "latitude_deg": 3.69496215615667e-05,
      "longitude_deg": 116.76114785230438,
      "height_km": 475.93856882513694,
      "semi_major_axis_km": 6853.330658189521,
      "eccentricity": 0.000101,
      "inclination_deg": 53.1604,
      "raan_deg": 245.3643,
      "arg_perigee_deg": 77.1796,
      "mean_anomaly_deg": 282.9318,
      "mean_motion_rev_day": 15.30207171
    },
    {
      "epoch": "2026-05-12T16:47:11.532192Z",
      "apogee_km": 475.72192554642334,
      "perigee_km": 474.6829592869526,
      "latitude_deg": 5.483377186670374e-07,
      "longitude_deg": 118.54494837071164,
      "height_km": 475.975715265085,
      "semi_major_axis_km": 6853.339442416687,
      "eccentricity": 7.58e-05,
      "inclination_deg": 53.1619,
      "raan_deg": 240.8132,
      "arg_perigee_deg": 75.9944,
      "mean_anomaly_deg": 284.1141,
      "mean_motion_rev_day": 15.30204229
    }
  ]
}